#aV2007  5 27  0  0   .00000000      96 DD+AD WGS84 FIT  NGA
## 1429       .00000000   900.00000000 54247  .0000000000000
+   30     1  2  3  4  5  6  7  8  9 10 11 12 13 14 16 17 18
+         19 20 21 22 23 24 25 26 27 28 29 30 31  0  0  0  0
+          0  0  0  0  0  0  0  0  0  0  0  0  0  0  0  0  0
+          0  0  0  0  0  0  0  0  0  0  0  0  0  0  0  0  0
+          0  0  0  0  0  0  0  0  0  0  0  0  0  0  0  0  0
++         0  0  0  0  0  0  0  0  0  0  0  0  0  0  0  0  0
++         0  0  0  0  0  0  0  0  0  0  0  0  0  0  0  0  0
++         0  0  0  0  0  0  0  0  0  0  0  0  0  0  0  0  0
++         0  0  0  0  0  0  0  0  0  0  0  0  0  0  0  0  0
++         0  0  0  0  0  0  0  0  0  0  0  0  0  0  0  0  0
%c cc cc ccc ccc cccc cccc cccc cccc ccccc ccccc ccccc ccccc
%c cc cc ccc ccc cccc cccc cccc cccc ccccc ccccc ccccc ccccc
%f  0.0000000  0.000000000  0.00000000000  0.000000000000000
%f  0.0000000  0.000000000  0.00000000000  0.000000000000000
%i    0    0    0    0      0      0      0      0         0
%i    0    0    0    0      0      0      0      0         0
/*      NGA, ST. LOUIS,MO.                                  
/*   EPHEMERIS COMPUTED FROM  3 DAYS OF DATA                
/* CCCCCCCCCCCCCCCCCCCCCCCCCCCCCCCCCCCCCCCCCCCCCCCCCCCCCCCCC
/* CCCCCCCCCCCCCCCCCCCCCCCCCCCCCCCCCCCCCCCCCCCCCCCCCCCCCCCCC
*  2007  5 27  3 15   .00000000                                                 
P  1  14231.998054  -2633.871915 -22061.345196    130.539790                    
V  1   5847.035328  27830.034129    385.041714       .023072                    
P  2 -21711.548604  10583.272008 -10925.661112    109.590148                    
V  2   7572.829374 -11783.939058 -27272.292319       .028621                    
P  3  14044.801957  -7583.340217  21001.479451     63.322448                    
V  3   9952.362421  25445.912338   2842.560678       .056387                    
P  4 -19359.980613    222.930485 -18396.150816     10.665236                    
V  4  15636.633229 -17135.737501 -16367.624917      -.004664                    
P  5  -1650.552634  15732.500150 -21578.258509    -12.873953                    
V  5 -26494.570031  -4764.776721  -1309.726594      -.174349                    
P  6   6385.173693  25684.203670  -1757.260295    196.191671                    
V  6  -4276.665784  -1289.435265 -31054.446144       .122480                    
P  7   9673.167935  24642.803719   1990.965713    284.876473                    
V  7  -2812.762534   3171.994373 -31076.388716      -.176739                    
P  8 -11533.257656  -9439.907915  21892.709812   -108.641769                    
V  8  20800.426028 -18736.032672   2437.006041      -.014650                    
P  9 -13663.320948  21697.802744  -7049.462048     72.082222                    
V  9  -7511.335129   4224.110480  30327.692217       .016270                    
P 10 -23126.280436   2387.131326  13013.776593    102.460114                    
V 10 -15339.692110  -6562.453789 -25511.047271       .005919                    
P 11  10233.293048 -23446.888443  -6670.961222     16.926167                    
V 11   8903.999929  -4082.629358  28761.096703       .010389                    
P 12  -6845.524648  13738.207391 -21561.742023    -45.525906                    
V 12 -26580.087326  -7598.982431   3637.868962      -.006904                    
P 13  -6007.615372 -25891.320977    323.992052    176.026718                    
V 13   1550.676640   -897.789926 -32452.353096       .034176                    
P 14  14747.128348  14470.049476 -16654.169668     22.016919                    
V 14   3724.003540  20919.942851  21293.886831       .017640                    
P 16  25373.647326   1503.276692   8055.455803    150.952678                    
V 16   9002.407466   5114.053040 -29476.467038       .029162                    
P 17 -14808.488703 -16551.804145 -14647.106917     66.783881                    
V 17  -2616.843960 -18504.724420  23403.320979      -.013361                    
P 18  14516.966530  16232.553844  15570.000740   -248.946932                    
V 18 -19068.176814  -4091.701412  21904.688678       .009199                    
P 19   9563.170678 -17118.383349  17964.343224     37.512746                    
V 19   5965.390791  21925.152647  17931.144593       .033159                    
P 20   5598.529861 -14467.964532 -21666.758706    -24.998541                    
V 20  26348.577632   7090.518573   2119.339583      -.003592                    
P 21   4537.350540  16239.358858  20514.866396     77.311098                    
V 21 -19933.165733  16738.288093  -9471.706877       .004062                    
P 22  23049.827333  11933.067048   5868.992732    183.866064                    
V 22  -7829.022974    576.968723  30324.996130       .015809                    
P 23    683.196229 -24519.687537 -10005.957228    169.235281                    
V 23   5481.001190  11629.949517 -28561.293575       .027475                    
P 24  -8583.818368  21052.332763  14173.183744      2.932114                    
V 24 -14423.077969  10190.083932 -23935.806424       .027392                    
P 25   6058.684768 -22251.179251  13742.863831    278.612539                    
V 25  12256.124083 -11555.045536 -24650.308799       .246471                    
P 26  -9983.204163  14007.490228  19614.448036   -216.224774                    
V 26  -6850.489124 -25099.816477  14672.974601      -.209120                    
P 27  -4467.349628 -16644.948844  20793.642133    113.066858                    
V 27  17382.272773 -18017.610932 -11267.798764       .021622                    
P 28 -21118.464104 -13417.309674   9749.914249       .299720                    
V 28  11916.106413   1299.952573  28256.186738      -.007792                    
P 29 -12189.138680   9694.666849  21656.589111      3.107064                    
V 29  -7419.946175 -25976.380451   7886.089019       .003598                    
P 30   5421.112122  16439.978242 -20480.295719     34.934984                    
V 30 -24903.886756  -4810.523709 -10499.095574       .010516                    
P 31  19332.172367  -1609.674901 -17977.613726     19.024799                    
V 31 -15322.154665  17482.922920 -17774.935006      -.005388                    
EOF
